COSMOS 2419 (714,2005.12.25)       
1 28915U 05050A   16269.55849263  .00000032  00000-0  00000+0 0  9995
2 28915  65.3680  74.7756 0014725 359.5984 102.2705  2.13106363 83691
COSMOS 2425 (716,2006.12.25)       
1 29670U 06062A   16269.06796146 -.00000016  00000-0  10000-3 0  9993
2 29670  65.5868 313.7969 0020013 339.8922 161.4651  2.13105057 75880
COSMOS 2426 (717,2006.12.25)      
1 29671U 06062B   16269.16650484 -.00000016  00000-0  10000-3 0  9999
2 29671  65.6046 313.8777 0018593 171.4412 265.6969  2.13103049 75891
COSMOS 2424 (715,2006.12.25)      
1 29672U 06062C   16268.87689646 -.00000017  00000-0  10000-3 0  9990
2 29672  65.5894 313.8135 0017973 170.4923 220.5692  2.13102416 75886
COSMOS 2433 (720,2007.12.26)       
1 32275U 07052A   16269.12090955  .00000032  00000-0  10000-3 0  9997
2 32275  65.3834  74.5641 0001080 190.7646 183.3075  2.13104874 69405
COSMOS 2432 (719,2007.10.26)       
1 32276U 07052B   16269.58784039  .00000031  00000-0  10000-3 0  9990
2 32276  65.3969  74.6155 0010103 347.4074 338.4799  2.13104191 69406
COSMOS 2434 (721,2007.10.25)       
1 32393U 07065A   16269.72534330 -.00000012  00000-0  00000+0 0  9992
2 32393  65.2047 313.0496 0003778 147.7926 221.2928  2.13102985 68127
COSMOS 2436 (723,2007.12.25)       
1 32395U 07065C   16269.13630029 -.00000015  00000-0  10000-3 0  9999
2 32395  65.2176 313.1145 0015428 347.0366  22.1778  2.13102996 68046
COSMOS 2443 (725,2008.9.25)       
1 33379U 08046B   16269.31674106  .00000031  00000-0  10000-3 0  9993
2 33379  65.3132  73.9642 0017171 179.6714 248.4435  2.13101221 62270
COSMOS 2456 (730,2009.12.14)       
1 36111U 09070A   16269.13433711 -.00000036  00000-0  00000+0 0  9994
2 36111  64.1805 192.6426 0005287 305.5266 140.1608  2.13103056 52779
COSMOS 2457 (733,2009.12.14)       
1 36112U 09070B   16269.05169412 -.00000035  00000-0  00000+0 0  9999
2 36112  64.1631 192.5701 0006478 177.1051 334.9734  2.13101791 52777
COSMOS 2458 (734,2010.1.10)       
1 36113U 09070C   16269.16106272 -.00000037  00000-0  10000-3 0  9994
2 36113  64.1693 192.5732 0001602 320.7230 322.8876  2.13101951 52770
COSMOS 2459 (731,2010.3.28)       
1 36400U 10007A   16269.08228850  .00000031  00000-0  10000-3 0  9996
2 36400  65.2930  73.7036 0026925 357.6081 211.3231  2.13102319 51124
COSMOS 2461 (735,2010.3.2)       
1 36401U 10007B   16269.12366378  .00000030  00000-0  10000-3 0  9999
2 36401  65.2856  73.6819 0008405  81.0102  70.2612  2.13102365 51121
COSMOS 2460 (732,2010.3.2)       
1 36402U 10007C   16269.07865009  .00000030  00000-0  10000-3 0  9999
2 36402  65.2759  73.6600 0002447 106.7454  51.6697  2.13101890 51125
COSMOS 2465 (737,2010.9.2)       
1 37138U 10041B   16269.55770521 -.00000014  00000-0  00000+0 0  9999
2 37138  64.8037 313.1785 0036851 174.4875 109.1163  2.13103515 47204
COSMOS 2464 (736,2010.9.2)       
1 37139U 10041C   16269.12026550 -.00000016  00000-0  00000+0 0  9991
2 37139  64.8118 313.1911 0020595   8.9621 123.6285  2.13102716 47202
COSMOS 2471 (701K,2011.2.26)      
1 37372U 11009A   16269.18768532  .00000030  00000-0  00000+0 0  9999
2 37372  65.2721  73.6038 0006904 221.9704 153.0167  2.13102865 43400
COSMOS 2474 (742,2011.10.2)       
1 37829U 11055A   16269.09858289 -.00000035  00000-0  00000+0 0  9992
2 37829  64.5054 193.0982 0009314 252.5098  26.7167  2.13102022 38761
COSMOS 2476 (744,2011.11.4)       
1 37867U 11064A   16269.17090876 -.00000036  00000-0  00000+0 0  9994
2 37867  64.4856 193.1739 0018334 246.9746 133.6076  2.13102083 38126
COSMOS 2477 (745,2011.11.4)       
1 37868U 11064B   16269.10868402 -.00000035  00000-0  00000+0 0  9995
2 37868  64.4944 193.2178 0016275 248.4028 263.7055  2.13102021 38073
COSMOS 2475 (743,2011.11.4)       
1 37869U 11064C   16269.44663709 -.00000039  00000-0  00000+0 0  9990
2 37869  64.5014 193.1962 0021514 273.7919  93.7967  2.13102334 38097
COSMOS 2485 (747,2013.4.26)       
1 39155U 13019A   16269.10642206 -.00000035  00000-0  00000+0 0  9990
2 39155  64.6546 193.1477 0018551 241.9130 134.3057  2.13102190 26592
COSMOS 2492 (754,2014.3.24)       
1 39620U 14012A   16269.23926554  .00000030  00000-0  10000-3 0  9995
2 39620  65.1649  73.6285 0013459 339.8416 171.7932  2.13103498 19540
COSMOS 2500 (755,2014.6.14)       
1 40001U 14032A   16269.01723579  .00000030  00000-0  00000+0 0  9995
2 40001  65.1065  73.6523 0006180 183.0752  21.8110  2.13102970 17755
COSMOS 2501 (702K,2014.12.1)      
1 40315U 14075A   16269.09959436 -.00000020  00000-0  00000+0 0  9991
2 40315  64.5758 314.6188 0019267 233.0016 195.8653  2.13101760 14161
COSMOS 2514 (751,2016.2.7)       
1 41330U 16008A   16269.22641939  .00000029  00000-0  00000+0 0  9996
2 41330  64.9061  73.8563 0008767 200.3720 344.2831  2.13103530  4921
COSMOS 2516 (753,2016.5.29)       
1 41554U 16032A   16269.13838777 -.00000019  00000-0  00000+0 0  9999
2 41554  64.7574 314.3158 0013832 223.4484 147.8588  2.13101653  2536
